COSMOS 1933             
1 18958U 88020A   26005.56155685  .00006170  00000+0  30744-3 0  9997
2 18958  82.5155 313.3386 0006142  67.5676 292.6207 15.17368789 40654
SL-3 R/B                
1 19046U 88032B   26005.57846053  .00007404  00000+0  35292-3 0  9990
2 19046  97.5104 349.1403 0028441  93.7173 266.7314 15.19041471 42526
SL-16 R/B               
1 19120U 88039B   26005.63413772  .00000163  00000+0  99967-4 0  9990
2 19120  71.0135 201.8768 0019578  75.1876 285.1417 14.19602898949433
COSMOS 1953             
1 19210U 88050A   25363.34859606  .00008063  00000+0  30114-3 0  9992
2 19210  82.5080 228.9139 0012535  18.6006 341.5688 15.27141359 27045
SL-8 R/B                
1 19257U 88053B   26005.66521831  .00000381  00000+0  13188-3 0  9998
2 19257  74.0461 228.6250 0019075  63.7723 352.6626 14.38877065967532
COSMOS 1975             
1 19573U 88093A   26005.50809788  .00009630  00000+0  36273-3 0  9992
2 19573  82.5191 181.0272 0012483  37.6151 322.5958 15.26878269  9765
SL-14 R/B               
1 19574U 88093B   26005.35035943  .00000821  00000+0  91902-4 0  9994
2 19574  82.5318 101.5115 0019354 245.9768 178.1957 14.85581816991635
SL-16 R/B               
1 19650U 88102B   26005.12136819 -.00000161  00000+0 -57208-4 0  9999
2 19650  71.0003 285.2471 0011907 111.3164 248.9232 14.16141714917892
INTERCOSMOS 24          
1 20261U 89080A   26005.65625580  .00000694  00000+0  19541-3 0  9997
2 20261  82.6071 145.4059 1188938  79.0641 294.1660 12.59478996658861
SL-14 R/B               
1 20262U 89080C   26005.58572225  .00000393  00000+0  11725-3 0  9999
2 20262  82.5912 213.7098 1230085 329.0898  24.3022 12.50433671652265
DELTA 1 R/B             
1 20323U 89089B   26005.57546566  .00000607  00000+0  15914-3 0  9996
2 20323  97.0738 223.0343 0068240 323.1378  36.5139 14.50597495886581
ARIANE 40 R/B           
1 20443U 90005H   26005.57566796  .00000462  00000+0  16050-3 0  9997
2 20443  98.3206  68.0761 0010694  40.1736 320.0241 14.39820050883724
